ONEWEB-0018             
1 45434U 20020L   24187.90311510  .00000043  00000+0  86875-4 0  9990
2 45434  87.8973 162.6217 0002120  82.6448 277.4921 13.11417904209404
ONEWEB-0083             
1 45435U 20020M   24187.66405034 -.00000422  00000+0 -12276-2 0  9994
2 45435  87.8974 162.6504 0002015  84.7879 275.3478 13.11418562209415
ONEWEB-0095             
1 45436U 20020N   24187.88458936 -.00000620  00000+0 -17866-2 0  9998
2 45436  87.8971 162.6408 0001715 109.9738 250.1574 13.11416739209441
ONEWEB-0092             
1 45437U 20020P   24187.92770894  .00000474  00000+0  13026-2 0  9993
2 45437  87.8970 162.6147 0002027  94.6576 265.4783 13.11415321209568
ONEWEB-0085             
1 45438U 20020Q   24187.88615432 -.00000526  00000+0 -15190-2 0  9999
2 45438  87.8975 162.6299 0002162  83.6804 276.4570 13.11417753209448
ONEWEB-0096             
1 45439U 20020R   24187.89463198 -.00000273  00000+0 -80558-3 0  9991
2 45439  87.8972 162.5990 0002269  82.6743 277.4643 13.11417917209435
ONEWEB-0037             
1 45440U 20020S   24187.95228116 -.00000435  00000+0 -12637-2 0  9991
2 45440  87.8965 162.5706 0002058  89.5589 270.5775 13.11415552209471
ONEWEB-0042             
1 45441U 20020T   24187.88431656  .00000047  00000+0  96981-4 0  9992
2 45441  87.8969 162.6145 0002106  85.0419 275.0949 13.11411532209434
